<?xml version="1.0" encoding="UTF-8"?>
<ndm xmlns:xsi="http://www.w3.org/2001/XMLSchema-instance" xsi:noNamespaceSchemaLocation="https://sanaregistry.org/r/ndmxml/ndmxml-1.0-master.xsd">
<omm id="CCSDS_OMM_VERS" version="2.0">
<header><CREATION_DATE/><ORIGINATOR/></header><body><segment><metadata><OBJECT_NAME>SIRIUSSAT-2</OBJECT_NAME><OBJECT_ID>1998-067PH</OBJECT_ID><CENTER_NAME>EARTH</CENTER_NAME><REF_FRAME>TEME</REF_FRAME><TIME_SYSTEM>UTC</TIME_SYSTEM><MEAN_ELEMENT_THEORY>SGP4</MEAN_ELEMENT_THEORY></metadata><data><meanElements><EPOCH>2020-12-09T08:46:22.935936</EPOCH><MEAN_MOTION>16.40921535</MEAN_MOTION><ECCENTRICITY>.0006261</ECCENTRICITY><INCLINATION>51.6062</INCLINATION><RA_OF_ASC_NODE>99.6513</RA_OF_ASC_NODE><ARG_OF_PERICENTER>312.7483</ARG_OF_PERICENTER><MEAN_ANOMALY>99.6145</MEAN_ANOMALY></meanElements><tleParameters><EPHEMERIS_TYPE>0</EPHEMERIS_TYPE><CLASSIFICATION_TYPE>U</CLASSIFICATION_TYPE><NORAD_CAT_ID>43596</NORAD_CAT_ID><ELEMENT_SET_NO>999</ELEMENT_SET_NO><REV_AT_EPOCH>13274</REV_AT_EPOCH><BSTAR>.57179E-3</BSTAR><MEAN_MOTION_DOT>.8904132E-1</MEAN_MOTION_DOT><MEAN_MOTION_DDOT>.12494E-4</MEAN_MOTION_DDOT></tleParameters></data></segment></body></omm>
<omm id="CCSDS_OMM_VERS" version="2.0">
<header><CREATION_DATE/><ORIGINATOR/></header><body><segment><metadata><OBJECT_NAME>1998-067PN</OBJECT_NAME><OBJECT_ID>1998-067PN</OBJECT_ID><CENTER_NAME>EARTH</CENTER_NAME><REF_FRAME>TEME</REF_FRAME><TIME_SYSTEM>UTC</TIME_SYSTEM><MEAN_ELEMENT_THEORY>SGP4</MEAN_ELEMENT_THEORY></metadata><data><meanElements><EPOCH>2020-12-14T13:40:50.968704</EPOCH><MEAN_MOTION>15.70064441</MEAN_MOTION><ECCENTRICITY>.000195</ECCENTRICITY><INCLINATION>51.6342</INCLINATION><RA_OF_ASC_NODE>117.1946</RA_OF_ASC_NODE><ARG_OF_PERICENTER>343.2802</ARG_OF_PERICENTER><MEAN_ANOMALY>16.8130</MEAN_ANOMALY></meanElements><tleParameters><EPHEMERIS_TYPE>0</EPHEMERIS_TYPE><CLASSIFICATION_TYPE>U</CLASSIFICATION_TYPE><NORAD_CAT_ID>43638</NORAD_CAT_ID><ELEMENT_SET_NO>999</ELEMENT_SET_NO><REV_AT_EPOCH>12491</REV_AT_EPOCH><BSTAR>.22036E-3</BSTAR><MEAN_MOTION_DOT>.2663E-3</MEAN_MOTION_DOT><MEAN_MOTION_DDOT>0</MEAN_MOTION_DDOT></tleParameters></data></segment></body></omm>
<omm id="CCSDS_OMM_VERS" version="2.0">
<header><CREATION_DATE/><ORIGINATOR/></header><body><segment><metadata><OBJECT_NAME>1998-067PP</OBJECT_NAME><OBJECT_ID>1998-067PP</OBJECT_ID><CENTER_NAME>EARTH</CENTER_NAME><REF_FRAME>TEME</REF_FRAME><TIME_SYSTEM>UTC</TIME_SYSTEM><MEAN_ELEMENT_THEORY>SGP4</MEAN_ELEMENT_THEORY></metadata><data><meanElements><EPOCH>2020-12-14T13:31:09.851808</EPOCH><MEAN_MOTION>15.82124404</MEAN_MOTION><ECCENTRICITY>.0004264</ECCENTRICITY><INCLINATION>51.6309</INCLINATION><RA_OF_ASC_NODE>99.0258</RA_OF_ASC_NODE><ARG_OF_PERICENTER>347.6744</ARG_OF_PERICENTER><MEAN_ANOMALY>12.4154</MEAN_ANOMALY></meanElements><tleParameters><EPHEMERIS_TYPE>0</EPHEMERIS_TYPE><CLASSIFICATION_TYPE>U</CLASSIFICATION_TYPE><NORAD_CAT_ID>43639</NORAD_CAT_ID><ELEMENT_SET_NO>999</ELEMENT_SET_NO><REV_AT_EPOCH>12515</REV_AT_EPOCH><BSTAR>.32436E-3</BSTAR><MEAN_MOTION_DOT>.67821E-3</MEAN_MOTION_DOT><MEAN_MOTION_DDOT>0</MEAN_MOTION_DDOT></tleParameters></data></segment></body></omm>
<omm id="CCSDS_OMM_VERS" version="2.0">
<header><CREATION_DATE/><ORIGINATOR/></header><body><segment><metadata><OBJECT_NAME>STARS-ME</OBJECT_NAME><OBJECT_ID>1998-067PQ</OBJECT_ID><CENTER_NAME>EARTH</CENTER_NAME><REF_FRAME>TEME</REF_FRAME><TIME_SYSTEM>UTC</TIME_SYSTEM><MEAN_ELEMENT_THEORY>SGP4</MEAN_ELEMENT_THEORY></metadata><data><meanElements><EPOCH>2020-12-14T14:27:02.234880</EPOCH><MEAN_MOTION>15.73361269</MEAN_MOTION><ECCENTRICITY>.0003739</ECCENTRICITY><INCLINATION>51.6322</INCLINATION><RA_OF_ASC_NODE>110.5686</RA_OF_ASC_NODE><ARG_OF_PERICENTER>345.1163</ARG_OF_PERICENTER><MEAN_ANOMALY>14.9725</MEAN_ANOMALY></meanElements><tleParameters><EPHEMERIS_TYPE>0</EPHEMERIS_TYPE><CLASSIFICATION_TYPE>U</CLASSIFICATION_TYPE><NORAD_CAT_ID>43640</NORAD_CAT_ID><ELEMENT_SET_NO>999</ELEMENT_SET_NO><REV_AT_EPOCH>12500</REV_AT_EPOCH><BSTAR>.26394E-3</BSTAR><MEAN_MOTION_DOT>.36913E-3</MEAN_MOTION_DOT><MEAN_MOTION_DDOT>0</MEAN_MOTION_DDOT></tleParameters></data></segment></body></omm>
<omm id="CCSDS_OMM_VERS" version="2.0">
<header><CREATION_DATE/><ORIGINATOR/></header><body><segment><metadata><OBJECT_NAME>ISS DEB (SEDA-AP)</OBJECT_NAME><OBJECT_ID>1998-067PU</OBJECT_ID><CENTER_NAME>EARTH</CENTER_NAME><REF_FRAME>TEME</REF_FRAME><TIME_SYSTEM>UTC</TIME_SYSTEM><MEAN_ELEMENT_THEORY>SGP4</MEAN_ELEMENT_THEORY></metadata><data><meanElements><EPOCH>2020-12-14T18:59:50.756352</EPOCH><MEAN_MOTION>15.59670844</MEAN_MOTION><ECCENTRICITY>.0003734</ECCENTRICITY><INCLINATION>51.6350</INCLINATION><RA_OF_ASC_NODE>141.2923</RA_OF_ASC_NODE><ARG_OF_PERICENTER>5.9395</ARG_OF_PERICENTER><MEAN_ANOMALY>354.1641</MEAN_ANOMALY></meanElements><tleParameters><EPHEMERIS_TYPE>0</EPHEMERIS_TYPE><CLASSIFICATION_TYPE>U</CLASSIFICATION_TYPE><NORAD_CAT_ID>43870</NORAD_CAT_ID><ELEMENT_SET_NO>999</ELEMENT_SET_NO><REV_AT_EPOCH>11277</REV_AT_EPOCH><BSTAR>.91402E-4</BSTAR><MEAN_MOTION_DOT>.6932E-4</MEAN_MOTION_DOT><MEAN_MOTION_DDOT>0</MEAN_MOTION_DDOT></tleParameters></data></segment></body></omm>
<omm id="CCSDS_OMM_VERS" version="2.0">
<header><CREATION_DATE/><ORIGINATOR/></header><body><segment><metadata><OBJECT_NAME>CATSAT-2</OBJECT_NAME><OBJECT_ID>1998-067PV</OBJECT_ID><CENTER_NAME>EARTH</CENTER_NAME><REF_FRAME>TEME</REF_FRAME><TIME_SYSTEM>UTC</TIME_SYSTEM><MEAN_ELEMENT_THEORY>SGP4</MEAN_ELEMENT_THEORY></metadata><data><meanElements><EPOCH>2020-12-15T01:38:47.126400</EPOCH><MEAN_MOTION>15.76029780</MEAN_MOTION><ECCENTRICITY>.0001868</ECCENTRICITY><INCLINATION>51.6389</INCLINATION><RA_OF_ASC_NODE>115.3798</RA_OF_ASC_NODE><ARG_OF_PERICENTER>23.7137</ARG_OF_PERICENTER><MEAN_ANOMALY>336.3949</MEAN_ANOMALY></meanElements><tleParameters><EPHEMERIS_TYPE>0</EPHEMERIS_TYPE><CLASSIFICATION_TYPE>U</CLASSIFICATION_TYPE><NORAD_CAT_ID>44029</NORAD_CAT_ID><ELEMENT_SET_NO>999</ELEMENT_SET_NO><REV_AT_EPOCH>10688</REV_AT_EPOCH><BSTAR>.36253E-3</BSTAR><MEAN_MOTION_DOT>.57372E-3</MEAN_MOTION_DOT><MEAN_MOTION_DDOT>0</MEAN_MOTION_DDOT></tleParameters></data></segment></body></omm>
<omm id="CCSDS_OMM_VERS" version="2.0">
<header><CREATION_DATE/><ORIGINATOR/></header><body><segment><metadata><OBJECT_NAME>DELPHINI</OBJECT_NAME><OBJECT_ID>1998-067PW</OBJECT_ID><CENTER_NAME>EARTH</CENTER_NAME><REF_FRAME>TEME</REF_FRAME><TIME_SYSTEM>UTC</TIME_SYSTEM><MEAN_ELEMENT_THEORY>SGP4</MEAN_ELEMENT_THEORY></metadata><data><meanElements><EPOCH>2020-12-15T03:39:15.062688</EPOCH><MEAN_MOTION>15.79689737</MEAN_MOTION><ECCENTRICITY>.000288</ECCENTRICITY><INCLINATION>51.6312</INCLINATION><RA_OF_ASC_NODE>111.1971</RA_OF_ASC_NODE><ARG_OF_PERICENTER>352.5723</ARG_OF_PERICENTER><MEAN_ANOMALY>7.5235</MEAN_ANOMALY></meanElements><tleParameters><EPHEMERIS_TYPE>0</EPHEMERIS_TYPE><CLASSIFICATION_TYPE>U</CLASSIFICATION_TYPE><NORAD_CAT_ID>44030</NORAD_CAT_ID><ELEMENT_SET_NO>999</ELEMENT_SET_NO><REV_AT_EPOCH>10691</REV_AT_EPOCH><BSTAR>.45216E-3</BSTAR><MEAN_MOTION_DOT>.84846E-3</MEAN_MOTION_DOT><MEAN_MOTION_DDOT>0</MEAN_MOTION_DDOT></tleParameters></data></segment></body></omm>
<omm id="CCSDS_OMM_VERS" version="2.0">
<header><CREATION_DATE/><ORIGINATOR/></header><body><segment><metadata><OBJECT_NAME>UNITE</OBJECT_NAME><OBJECT_ID>1998-067PX</OBJECT_ID><CENTER_NAME>EARTH</CENTER_NAME><REF_FRAME>TEME</REF_FRAME><TIME_SYSTEM>UTC</TIME_SYSTEM><MEAN_ELEMENT_THEORY>SGP4</MEAN_ELEMENT_THEORY></metadata><data><meanElements><EPOCH>2020-12-14T18:32:04.342272</EPOCH><MEAN_MOTION>15.66633016</MEAN_MOTION><ECCENTRICITY>.0001986</ECCENTRICITY><INCLINATION>51.6362</INCLINATION><RA_OF_ASC_NODE>130.6441</RA_OF_ASC_NODE><ARG_OF_PERICENTER>25.9785</ARG_OF_PERICENTER><MEAN_ANOMALY>334.1310</MEAN_ANOMALY></meanElements><tleParameters><EPHEMERIS_TYPE>0</EPHEMERIS_TYPE><CLASSIFICATION_TYPE>U</CLASSIFICATION_TYPE><NORAD_CAT_ID>44031</NORAD_CAT_ID><ELEMENT_SET_NO>999</ELEMENT_SET_NO><REV_AT_EPOCH>10662</REV_AT_EPOCH><BSTAR>.2186E-3</BSTAR><MEAN_MOTION_DOT>.22885E-3</MEAN_MOTION_DOT><MEAN_MOTION_DDOT>0</MEAN_MOTION_DDOT></tleParameters></data></segment></body></omm>

</ndm>
